OBJECT_NAME,OBJECT_ID,EPOCH,MEAN_MOTION,ECCENTRICITY,INCLINATION,RA_OF_ASC_NODE,ARG_OF_PERICENTER,MEAN_ANOMALY,EPHEMERIS_TYPE,CLASSIFICATION_TYPE,NORAD_CAT_ID,ELEMENT_SET_NO,REV_AT_EPOCH,BSTAR,MEAN_MOTION_DOT,MEAN_MOTION_DDOT
STARLINK-37963,2026-147F,2026-07-17T13:42:01.319040,15.80897642,.0001301,97.2818,235.1044,72.3599,287.7811,0,U,69709,999,423,.99377E-3,.195259E-2,0
STARLINK-37969,2026-147G,2026-07-17T13:40:56.232192,15.80921867,.0000921,97.2824,235.1055,68.1295,292.0071,0,U,69710,999,423,.11512E-2,.227299E-2,0
STARLINK-37956,2026-147H,2026-07-17T13:39:51.470208,15.80895016,.0001295,97.2827,235.1076,60.3055,299.8342,0,U,69711,999,423,.98038E-3,.192542E-2,0
STARLINK-38043,2026-147J,2026-07-17T13:38:45.972096,15.80898257,.0000226,97.2825,235.1081,261.4032,98.7211,0,U,69712,999,423,.93386E-3,.183233E-2,0
STARLINK-38020,2026-147K,2026-07-17T13:37:41.096064,15.80887328,.0000544,97.2821,235.1103,195.1337,164.9915,0,U,69713,999,423,.84399E-3,.165154E-2,0
STARLINK-38059,2026-147L,2026-07-17T13:36:36.174240,15.80894200,.0000317,97.2831,235.1117,264.6269,95.4963,0,U,69714,999,423,.96181E-3,.188806E-2,0
STARLINK-38061,2026-147M,2026-07-17T13:35:31.494336,15.80898339,.0000684,97.2821,235.1118,52.7499,307.3831,0,U,69715,999,423,.89364E-3,.175168E-2,0
STARLINK-38060,2026-147N,2026-07-17T13:34:26.791968,15.80894454,.000104,97.2819,235.1125,79.1308,281.0077,0,U,69716,999,423,.92466E-3,.18135E-2,0
STARLINK-38040,2026-147P,2026-07-17T13:33:21.843360,15.80890613,.0001224,97.2821,235.1138,79.6660,280.4746,0,U,69717,999,423,.87741E-3,.171859E-2,0
STARLINK-37989,2026-147Q,2026-07-17T13:32:16.935360,15.80852738,.0001535,97.2807,235.1139,81.9005,278.2437,0,U,69718,999,423,.10669E-2,.209564E-2,0
STARLINK-38039,2026-147R,2026-07-17T13:31:11.737056,15.80912897,.0000718,97.2817,235.1145,52.5970,307.5364,0,U,69719,999,423,.10285E-2,.202402E-2,0
STARLINK-38003,2026-147S,2026-07-17T13:30:07.102080,15.80899551,.0001174,97.2827,235.1156,92.3213,267.8189,0,U,69720,999,423,.1004E-2,.197341E-2,0
STARLINK-38014,2026-147T,2026-07-17T13:29:01.947840,15.80887599,.0001029,97.2822,235.1166,63.1266,297.0108,0,U,69721,999,423,.99049E-3,.194507E-2,0
STARLINK-37915,2026-147U,2026-07-17T21:03:43.240320,15.80877000,.00013868,97.2815,235.4519,94.5541,265.5886,0,U,69722,999,428,.11195686E-2,.220427E-2,0
STARLINK-38007,2026-147V,2026-07-17T08:57:57.642048,15.80781191,.0002152,97.2842,234.9147,343.2087,16.9110,0,U,69723,999,420,.36476E-2,.761876E-2,0
STARLINK-38008,2026-147W,2026-07-17T08:52:19.640064,15.80856306,.0001196,97.2819,234.9186,92.5327,267.6078,0,U,69724,999,420,.99966E-3,.196064E-2,0
STARLINK-38021,2026-147X,2026-07-17T13:24:42.454944,15.80901884,.0001159,97.2816,235.1212,72.4509,287.6886,0,U,69725,999,423,.10421E-2,.205032E-2,0
STARLINK-38015,2026-147Y,2026-07-17T01:14:28.656384,15.80693791,.00031092,97.2828,234.5863,175.2803,184.8496,0,U,69726,999,415,.13764939E-2,.270378E-2,0
STARLINK-38010,2026-147Z,2026-07-17T12:37:08.268960,15.75240203,.0000594,97.2838,235.0124,89.8639,270.2694,0,U,69727,999,422,.10192E-2,.155021E-2,0
SXM-11,2026-148A,2026-07-17T21:15:09.184608,1.00270079,.00019675,0.1045,265.1033,182.6290,46.2315,0,U,69728,999,35,0,.2E-7,0
HAIYANG-2E,2026-149A,2026-07-17T20:13:52.870656,13.79314680,.00015852,99.3454,205.7315,89.9573,270.1760,0,U,69737,999,218,-.1919833E-4,-.64E-6,0
CZ-4B R/B,2026-149B,2026-07-17T23:45:42.111936,14.30068265,.01980095,99.3218,207.2084,322.0215,36.7139,0,U,69738,999,253,.3050023E-4,.39E-6,0
STARLINK-38033,2026-150A,2026-07-17T11:45:37.111104,15.80903739,.0001271,97.2846,36.9841,101.6458,258.4953,0,U,69739,999,368,.11411E-2,.225059E-2,0
STARLINK-38076,2026-150B,2026-07-17T12:24:19.910304,15.75242485,.0001137,97.2837,36.9457,98.9376,261.2018,0,U,69740,999,368,.10925E-2,.16641E-2,0
STARLINK-38074,2026-150C,2026-07-17T20:49:09.649056,15.79917172,.00046456,97.2855,37.3887,347.6885,12.4269,0,U,69741,999,374,.82176935E-3,.153741E-2,0
STARLINK-38041,2026-150D,2026-07-17T22:00:01.999584,15.75182941,.00012155,97.2850,37.4213,103.3936,128.3068,0,U,69742,999,373,-.18445746E-3,-.27545E-3,0
STARLINK-38087,2026-150E,2026-07-17T22:00:01.999584,15.75181016,.00009709,97.2848,37.4380,107.7987,165.8896,0,U,69743,999,373,-.42744019E-4,-.6497E-4,0
STARLINK-38078,2026-150F,2026-07-17T07:05:11.698656,15.80874562,.0002636,97.2848,36.7891,72.7886,287.3670,0,U,69744,999,365,.14534E-2,.288448E-2,0
STARLINK-38047,2026-150G,2026-07-17T22:00:01.999584,15.75194158,.0000584,97.2851,37.4250,119.2684,122.4283,0,U,69745,999,373,-.26667231E-3,-.39726E-3,0
STARLINK-38046,2026-150H,2026-07-17T20:41:38.666112,15.80954026,.00007891,97.2852,37.3962,181.2578,178.8689,0,U,69746,999,374,.13991112E-2,.278335E-2,0
