STARLINK-37963          
1 69709U 26147F   26198.57084860  .00195259  00000+0  99377-3 0  9993
2 69709  97.2818 235.1044 0001301  72.3599 287.7811 15.80897642  4230
STARLINK-37969          
1 69710U 26147G   26198.57009528  .00227299  00000+0  11512-2 0  9997
2 69710  97.2824 235.1055 0000921  68.1295 292.0071 15.80921867  4238
STARLINK-37956          
1 69711U 26147H   26198.56934572  .00192542  00000+0  98038-3 0  9994
2 69711  97.2827 235.1076 0001295  60.3055 299.8342 15.80895016  4230
STARLINK-38043          
1 69712U 26147J   26198.56858764  .00183233  00000+0  93386-3 0  9991
2 69712  97.2825 235.1081 0000226 261.4032  98.7211 15.80898257  4238
STARLINK-38020          
1 69713U 26147K   26198.56783676  .00165154  00000+0  84399-3 0  9997
2 69713  97.2821 235.1103 0000544 195.1337 164.9915 15.80887328  4238
STARLINK-38059          
1 69714U 26147L   26198.56708535  .00188806  00000+0  96181-3 0  9990
2 69714  97.2831 235.1117 0000317 264.6269  95.4963 15.80894200  4237
STARLINK-38061          
1 69715U 26147M   26198.56633674  .00175168  00000+0  89364-3 0  9994
2 69715  97.2821 235.1118 0000684  52.7499 307.3831 15.80898339  4232
STARLINK-38060          
1 69716U 26147N   26198.56558787  .00181350  00000+0  92466-3 0  9993
2 69716  97.2819 235.1125 0001040  79.1308 281.0077 15.80894454  4231
STARLINK-38040          
1 69717U 26147P   26198.56483615  .00171859  00000+0  87741-3 0  9994
2 69717  97.2821 235.1138 0001224  79.6660 280.4746 15.80890613  4238
STARLINK-37989          
1 69718U 26147Q   26198.56408490  .00209564  00000+0  10669-2 0  9992
2 69718  97.2807 235.1139 0001535  81.9005 278.2437 15.80852738  4236
STARLINK-38039          
1 69719U 26147R   26198.56333029  .00202402  00000+0  10285-2 0  9996
2 69719  97.2817 235.1145 0000718  52.5970 307.5364 15.80912897  4230
STARLINK-38003          
1 69720U 26147S   26198.56258220  .00197341  00000+0  10040-2 0  9991
2 69720  97.2827 235.1156 0001174  92.3213 267.8189 15.80899551  4238
STARLINK-38014          
1 69721U 26147T   26198.56182810  .00194507  00000+0  99049-3 0  9991
2 69721  97.2822 235.1166 0001029  63.1266 297.0108 15.80887599  4233
STARLINK-37915          
1 69722U 26147U   26198.87758380  .00220427  00000+0  11196-2 0  9994
2 69722  97.2815 235.4519 0001386  94.5541 265.5886 15.80877000  4285
STARLINK-38007          
1 69723U 26147V   26198.37358382  .00761876  00000+0  36476-2 0  9994
2 69723  97.2842 234.9147 0002152 343.2087  16.9110 15.80781191  4203
STARLINK-38008          
1 69724U 26147W   26198.36967176  .00196064  00000+0  99966-3 0  9996
2 69724  97.2819 234.9186 0001196  92.5327 267.6078 15.80856306  4208
STARLINK-38021          
1 69725U 26147X   26198.55882471  .00205032  00000+0  10421-2 0  9996
2 69725  97.2816 235.1212 0001159  72.4509 287.6886 15.80901884  4231
STARLINK-38015          
1 69726U 26147Y   26198.05172056  .00270378  00000+0  13765-2 0  9992
2 69726  97.2828 234.5863 0003109 175.2803 184.8496 15.80693791  4157
STARLINK-38010          
1 69727U 26147Z   26198.52579015  .00155021  00000+0  10192-2 0  9999
2 69727  97.2838 235.0124 0000594  89.8639 270.2694 15.75240203  4225
SXM-11                  
1 69728U 26148A   26198.88552297  .00000002  00000+0  00000+0 0  9995
2 69728   0.1045 265.1033 0001967 182.6290  46.2315  1.00270079   350
HAIYANG-2E              
1 69737U 26149A   26198.84297304 -.00000064  00000+0 -19198-4 0  9990
2 69737  99.3454 205.7315 0001585  89.9573 270.1760 13.79314680  2187
CZ-4B R/B               
1 69738U 26149B   26198.99007074  .00000039  00000+0  30500-4 0  9990
2 69738  99.3218 207.2084 0198009 322.0215  36.7139 14.30068265  2536
STARLINK-38033          
1 69739U 26150A   26198.49001286  .00225059  00000+0  11411-2 0  9996
2 69739  97.2846  36.9841 0001271 101.6458 258.4953 15.80903739  3687
STARLINK-38076          
1 69740U 26150B   26198.51689711  .00166410  00000+0  10925-2 0  9990
2 69740  97.2837  36.9457 0001137  98.9376 261.2018 15.75242485  3682
STARLINK-38074          
1 69741U 26150C   26198.86747279  .00153741  00000+0  82177-3 0  9995
2 69741  97.2855  37.3887 0004645 347.6885  12.4269 15.79917172  3748
STARLINK-38041          
1 69742U 26150D   26198.91668981 -.00027545  00000+0 -18446-3 0  9996
2 69742  97.2850  37.4213 0001215 103.3936 128.3068 15.75182941  3739
STARLINK-38087          
1 69743U 26150E   26198.91668981 -.00006497  00000+0 -42744-4 0  9999
2 69743  97.2848  37.4380 0000970 107.7987 165.8896 15.75181016  3730
STARLINK-38078          
1 69744U 26150F   26198.29527429  .00288448  00000+0  14534-2 0  9992
2 69744  97.2848  36.7891 0002636  72.7886 287.3670 15.80874562  3652
STARLINK-38047          
1 69745U 26150G   26198.91668981 -.00039726  00000+0 -26667-3 0  9997
2 69745  97.2851  37.4250 0000584 119.2684 122.4283 15.75194158  3735
STARLINK-38046          
1 69746U 26150H   26198.86225308  .00278335  00000+0  13991-2 0  9998
2 69746  97.2852  37.3962 0000789 181.2578 178.8689 15.80954026  3744
